NORAD_CAT_ID,OBJECT_NAME,OBJECT_TYPE,EPOCH,MEAN_MOTION,ECCENTRICITY,INCLINATION,RA_OF_ASC_NODE,ARG_OF_PERICENTER,MEAN_ANOMALY,BSTAR,MEAN_MOTION_DOT,MEAN_MOTION_DDOT,TLE_LINE0,TLE_LINE1,TLE_LINE2,SEMIMAJOR_AXIS,PERIOD,APOGEE,PERIGEE,DECAYED
54765.0,STARLINK-5466,PAYLOAD,2023-01-17 14:00:01,15.46490153,0.000113,53.2173,155.7212,80.02199999999999,356.1806,-0.025809,-0.01185949,0.0,0 STARLINK-5466,1 54765U 22175H   23017.58334491 -.01185949  00000-0 -25809-1 0  9998,2 54765  53.2173 155.7212 0001130  80.0220 356.1806 15.46490153  1301,6805.14,93.114,427.774,426.236,0.0
54765.0,STARLINK-5466,PAYLOAD,2023-01-17 22:00:00,15.45662296,0.000135,53.2143,154.1413,74.2886,58.2571,-0.027718,-0.01233027,0.0,0 STARLINK-5466,1 54765U 22175H   23017.91667824 -.01233027  00000-0 -27718-1 0  9996,2 54765  53.2143 154.1413 0001350  74.2886  58.2571 15.45662296  1308,6807.57,93.164,430.354,428.516,0.0
54765.0,STARLINK-5466,PAYLOAD,2023-01-18 02:00:01,15.45207327,0.0001181,53.2145,153.3489,91.9465,248.3852,-0.027373,-0.01201705,0.0,0 STARLINK-5466,1 54765U 22175H   23018.08334491 -.01201705  00000-0 -27373-1 0  9991,2 54765  53.2145 153.3489 0001181  91.9465 248.3852 15.45207327  4649,6808.906,93.191,431.575,429.967,0.0
54765.0,STARLINK-5466,PAYLOAD,2023-01-18 14:00:01,15.43917858,0.000132,53.2142,150.9794,84.5383,157.569,-0.0284269999999999,-0.01194724,0.0,0 STARLINK-5466,1 54765U 22175H   23018.58334491 -.01194724  00000-0 -28427-1 0  9999,2 54765  53.2142 150.9794 0001320  84.5383 157.5690 15.43917858  1306,6812.696999999999,93.269,435.461,433.662,0.0
54765.0,STARLINK-5466,PAYLOAD,2023-01-18 22:00:00,15.43095162,0.0001167999999999,53.2138,149.4018,79.6821,215.64,-0.030523,-0.01242502,0.0,0 STARLINK-5466,1 54765U 22175H   23018.91667824 -.01242502  00000-0 -30523-1 0  9993,2 54765  53.2138 149.4018 0001168  79.6821 215.6400 15.43095162  1305,6815.118,93.319,437.779,436.187,0.0
54765.0,STARLINK-5466,PAYLOAD,2023-01-19 00:00:00,15.42876212,0.0001185,53.2139,149.0071,73.3638,325.1085,-0.030746,-0.01242341,0.0,0 STARLINK-5466,1 54765U 22175H   23019.00001157 -.01242341  00000-0 -30746-1 0  9993,2 54765  53.2139 149.0071 0001185  73.3638 325.1085 15.42876212  4780,6815.763000000001,93.332,438.435,436.82,0.0
54765.0,STARLINK-5466,PAYLOAD,2023-01-19 14:00:01,15.41349879,0.0001222,53.2142,146.2522,75.7341,322.9676,-0.031117,-0.01198561,0.0,0 STARLINK-5466,1 54765U 22175H   23019.58334491 -.01198561  00000-0 -31117-1 0  9993,2 54765  53.2142 146.2522 0001222  75.7341 322.9676 15.41349879  4877,6820.261,93.425,442.96,441.293,0.0
54765.0,STARLINK-5466,PAYLOAD,2023-01-20 14:00:01,15.38773608,0.000146,53.2147,141.5435,79.2207,106.8095,-0.033637,-0.01190176,0.0,0 STARLINK-5466,1 54765U 22175H   23020.58334491 -.01190176  00000-0 -33637-1 0  9998,2 54765  53.2147 141.5435 0001460  79.2207 106.8095 15.38773608  5037,6827.871999999999,93.581,450.734,448.74,0.0
54765.0,STARLINK-5466,PAYLOAD,2023-01-20 16:00:00,15.38553488,0.0001305,53.2149,141.1523,81.3728,206.5147,-0.033373,-0.01173837,0.0,0 STARLINK-5466,1 54765U 22175H   23020.66667824 -.01173837  00000-0 -33373-1 0  9998,2 54765  53.2149 141.1523 0001305  81.3728 206.5147 15.38553488  1307,6828.523,93.594,451.279,449.497,0.0
54765.0,STARLINK-5466,PAYLOAD,2023-01-21 08:00:01,15.36868288,0.0001197,53.2155,138.0225,95.344,285.1486,-0.036511,-0.01211509,0.0,0 STARLINK-5466,1 54765U 22175H   23021.33335648 -.01211509  00000-0 -36511-1 0  9995,2 54765  53.2155 138.0225 0001197  95.3440 285.1486 15.36868288  5143,6833.514,93.697,456.197,454.561,0.0
54765.0,STARLINK-5466,PAYLOAD,2023-01-22 08:00:01,15.34296418,0.0001406,53.2166,133.346,89.0289,62.5044,-0.039702,-0.01212425,0.0,0 STARLINK-5466,1 54765U 22175H   23022.33334491 -.01212425  00000-0 -39702-1 0  9994,2 54765  53.2166 133.3460 0001406  89.0289  62.5044 15.34296418  5301,6841.148,93.854,463.975,462.051,0.0
54765.0,STARLINK-5466,PAYLOAD,2023-01-23 08:00:01,15.31724802,0.0001363,53.2167,128.6875,91.9203,181.4469,-0.043037,-0.01228324,0.0,0 STARLINK-5466,1 54765U 22175H   23023.33334491 -.01228324  00000-0 -43037-1 0  9996,2 54765  53.2167 128.6875 0001363  91.9203 181.4469 15.31724802  5457,6848.803000000001,94.012,471.602,469.735,0.0
54765.0,STARLINK-5466,PAYLOAD,2023-01-24 08:00:01,15.29154655,0.0001233,53.2165,124.0473,93.0754,292.8545,-0.0467589999999999,-0.01231411,0.0,0 STARLINK-5466,1 54765U 22175H   23024.33334491 -.01231411  00000-0 -46759-1 0  9992,2 54765  53.2165 124.0473 0001233  93.0754 292.8545 15.29154655  5608,6856.475,94.17,479.185,477.495,0.0
54765.0,STARLINK-5466,PAYLOAD,2023-01-25 14:00:01,15.25912079,0.0001334,53.2158,118.2735,75.4446,348.1634,-0.049814,-0.01191193,0.0,0 STARLINK-5466,1 54765U 22175H   23025.58334491 -.01191193  00000-0 -49814-1 0  9997,2 54765  53.2158 118.2735 0001334  75.4446 348.1634 15.25912079  1305,6866.185,94.37,488.966,487.134,0.0
54765.0,STARLINK-5466,PAYLOAD,2023-01-25 16:00:01,15.25687071,0.0001496,53.2158,117.8897,76.4928,85.1774,-0.0490899999999999,-0.01167872,0.0,0 STARLINK-5466,1 54765U 22175H   23025.66668981 -.01167872  00000-0 -49090-1 0  9993,2 54765  53.2158 117.8897 0001496  76.4928  85.1774 15.25687071  5818,6866.86,94.384,489.752,487.698,0.0
54765.0,STARLINK-5466,PAYLOAD,2023-01-25 22:00:00,15.2508036,0.0001295,53.2154,116.7372,76.93,18.2712,-0.053197,-0.01236456,0.0,0 STARLINK-5466,1 54765U 22175H   23025.91667824 -.01236456  00000-0 -53197-1 0  9994,2 54765  53.2154 116.7372 0001295  76.9300  18.2712 15.25080360  1303,6868.681,94.421,491.436,489.657,0.0
54765.0,STARLINK-5466,PAYLOAD,2023-01-26 10:00:00,15.23787562,0.0001276,53.2153,114.4383,86.6941,233.9757,-0.0547669999999999,-0.01225362,0.0,0 STARLINK-5466,1 54765U 22175H   23026.41667824 -.01225362  00000-0 -54767-1 0  9998,2 54765  53.2153 114.4383 0001276  86.6941 233.9757 15.23787562  5920,6872.566,94.501,495.3080000000001,493.554,0.0
54765.0,STARLINK-5466,PAYLOAD,2023-01-26 14:00:01,15.23337145,0.0001501,53.2153,113.6736,75.4445,79.8702,-0.053446,-0.01183399,0.0,0 STARLINK-5466,1 54765U 22175H   23026.58334491 -.01183399  00000-0 -53446-1 0  9993,2 54765  53.2153 113.6736 0001501  75.4445  79.8702 15.23337145  1302,6873.92,94.529,496.817,494.753,0.0
54765.0,STARLINK-5466,PAYLOAD,2023-01-27 14:00:01,15.20762309,0.0001496,53.2148,109.092,90.6963,147.0545,-0.057254,-0.01175212,0.0,0 STARLINK-5466,1 54765U 22175H   23027.58334491 -.01175212  00000-0 -57254-1 0  9990,2 54765  53.2148 109.0920 0001496  90.6963 147.0545 15.20762309  1301,6881.677,94.689,504.571,502.512,0.0
54765.0,STARLINK-5466,PAYLOAD,2023-01-27 16:00:00,15.20549027,0.0001273,53.2147,108.7111,90.0744,244.1266,-0.057535,-0.01173676,0.0,0 STARLINK-5466,1 54765U 22175H   23027.66667824 -.01173676  00000-0 -57535-1 0  9992,2 54765  53.2147 108.7111 0001273  90.0744 244.1266 15.20549027  6115,6882.32,94.703,505.062,503.309,0.0
54765.0,STARLINK-5466,PAYLOAD,2023-01-27 22:00:00,15.19928572,0.0001324,53.2146,107.5675,96.6422,166.5242,-0.061246,-0.01222529,0.0,0 STARLINK-5466,1 54765U 22175H   23027.91667824 -.01222529  00000-0 -61246-1 0  9996,2 54765  53.2146 107.5675 0001324  96.6422 166.5242 15.19928572  1309,6884.193,94.741,506.97,505.147,0.0
54765.0,STARLINK-5466,PAYLOAD,2023-01-28 08:00:01,15.18865486,0.0001234,53.2147,105.6664,94.1585,289.328,-0.06372,-0.01232144,0.0,0 STARLINK-5466,1 54765U 22175H   23028.33334491 -.01232144  00000-0 -63720-1 0  9997,2 54765  53.2147 105.6664 0001234  94.1585 289.3280 15.18865486  6214,6887.405,94.808,510.12,508.42,0.0
54765.0,STARLINK-5466,PAYLOAD,2023-01-28 14:00:01,15.18189844,0.0001341,53.2146,104.5284,89.8033,221.1135,-0.061565,-0.01172412,0.0,0 STARLINK-5466,1 54765U 22175H   23028.58334491 -.01172412  00000-0 -61565-1 0  9990,2 54765  53.2146 104.5284 0001341  89.8033 221.1135 15.18189844  1302,6889.448,94.85,512.237,510.39,0.0
54765.0,STARLINK-5466,PAYLOAD,2023-01-28 22:00:00,15.1735042,0.0001216,53.2144,103.0098,93.8394,239.4052,-0.065391,-0.01211887,0.0,0 STARLINK-5466,1 54765U 22175H   23028.91667824 -.01211887  00000-0 -65391-1 0  9997,2 54765  53.2144 103.0098 0001216  93.8394 239.4052 15.17350420  1302,6891.989,94.902,514.692,513.016,0.0
54765.0,STARLINK-5466,PAYLOAD,2023-01-29 16:00:00,15.15413406,0.0001389,53.2144,99.6048,76.8972,32.8179,-0.067435,-0.01184551,0.0,0 STARLINK-5466,1 54765U 22175H   23029.66667824 -.01184551  00000-0 -67435-1 0  9998,2 54765  53.2144  99.6048 0001389  76.8972  32.8179 15.15413406  6426,6897.861,95.024,520.684,518.768,0.0
54765.0,STARLINK-5466,PAYLOAD,2023-01-29 22:00:01,15.14772128,0.00012,53.2146,98.47,84.9311,309.1846,-0.069669,-0.01200213,0.0,0 STARLINK-5466,1 54765U 22175H   23029.91668981 -.01200213  00000-0 -69669-1 0  9996,2 54765  53.2146  98.4700 0001200  84.9311 309.1846 15.14772128  1300,6899.807,95.064,522.5,520.844,0.0
54765.0,STARLINK-5466,PAYLOAD,2023-01-30 10:00:00,15.134873,0.0001483,53.2146,96.208,86.5337,154.4437,-0.072417,-0.01202757,0.0,0 STARLINK-5466,1 54765U 22175H   23030.41667824 -.01202757  00000-0 -72417-1 0  9998,2 54765  53.2146  96.2080 0001483  86.5337 154.4437 15.13487300  6537,6903.712,95.145,526.601,524.553,0.0
54765.0,STARLINK-5466,PAYLOAD,2023-01-30 14:00:01,15.1304588,0.000141,53.2149,95.4552,74.8196,354.6182,-0.071075,-0.01168747,0.0,0 STARLINK-5466,1 54765U 22175H   23030.58334491 -.01168747  00000-0 -71075-1 0  9996,2 54765  53.2149  95.4552 0001410  74.8196 354.6182 15.13045880  1302,6905.054,95.172,527.893,525.946,0.0
54765.0,STARLINK-5466,PAYLOAD,2023-01-31 00:00:00,15.11968116,0.0001453,53.2149,93.5721,86.0151,93.4538,-0.072944,-0.01164104,0.0,0 STARLINK-5466,1 54765U 22175H   23031.00001157 -.01164104  00000-0 -72944-1 0  9993,2 54765  53.2149  93.5721 0001453  86.0151  93.4538 15.11968116  1309,6908.335,95.24,531.204,529.197,0.0
